CCSDS_OMM_VERS = 2.0
CREATION_DATE  = 
ORIGINATOR     = 

OBJECT_NAME    = ALOS (DAICHI)
OBJECT_ID      = 2006-002A
CENTER_NAME    = EARTH
REF_FRAME      = TEME
TIME_SYSTEM    = UTC
MEAN_ELEMENT_THEORY = SGP/SGP4

EPOCH          = 2025-12-17T17:37:14.152512
MEAN_MOTION    = 14.69501788
ECCENTRICITY   = .00013612
INCLINATION    = 98.1098
RA_OF_ASC_NODE = 303.1864
ARG_OF_PERICENTER = 113.5739
MEAN_ANOMALY   = 246.5610

EPHEMERIS_TYPE = 0
CLASSIFICATION_TYPE = U
NORAD_CAT_ID   = 28931
ELEMENT_SET_NO = 999
REV_AT_EPOCH   = 6144
BSTAR          = .19545051E-3
MEAN_MOTION_DOT = .111E-4
MEAN_MOTION_DDOT = 0

CCSDS_OMM_VERS = 2.0
CREATION_DATE  = 
ORIGINATOR     = 

OBJECT_NAME    = H-2A R/B
OBJECT_ID      = 2006-002B
CENTER_NAME    = EARTH
REF_FRAME      = TEME
TIME_SYSTEM    = UTC
MEAN_ELEMENT_THEORY = SGP/SGP4

EPOCH          = 2025-12-28T07:25:40.627200
MEAN_MOTION    = 15.14892516
ECCENTRICITY   = .00549787
INCLINATION    = 98.2322
RA_OF_ASC_NODE = 138.3338
ARG_OF_PERICENTER = 123.8024
MEAN_ANOMALY   = 236.8459

EPHEMERIS_TYPE = 0
CLASSIFICATION_TYPE = U
NORAD_CAT_ID   = 28932
ELEMENT_SET_NO = 999
REV_AT_EPOCH   = 8362
BSTAR          = .68322905E-3
MEAN_MOTION_DOT = .13144E-3
MEAN_MOTION_DDOT = 0

CCSDS_OMM_VERS = 2.0
CREATION_DATE  = 
ORIGINATOR     = 

OBJECT_NAME    = RESURS-DK 1
OBJECT_ID      = 2006-021A
CENTER_NAME    = EARTH
REF_FRAME      = TEME
TIME_SYSTEM    = UTC
MEAN_ELEMENT_THEORY = SGP/SGP4

EPOCH          = 2025-12-28T07:24:48.912480
MEAN_MOTION    = 15.12252909
ECCENTRICITY   = .00070124
INCLINATION    = 69.9341
RA_OF_ASC_NODE = 61.5992
ARG_OF_PERICENTER = 245.2897
MEAN_ANOMALY   = 114.7539

EPHEMERIS_TYPE = 0
CLASSIFICATION_TYPE = U
NORAD_CAT_ID   = 29228
ELEMENT_SET_NO = 999
REV_AT_EPOCH   = 7673
BSTAR          = .23237584E-3
MEAN_MOTION_DOT = .3923E-4
MEAN_MOTION_DDOT = 0

CCSDS_OMM_VERS = 2.0
CREATION_DATE  = 
ORIGINATOR     = 

OBJECT_NAME    = CZ-4B R/B
OBJECT_ID      = 2006-046C
CENTER_NAME    = EARTH
REF_FRAME      = TEME
TIME_SYSTEM    = UTC
MEAN_ELEMENT_THEORY = SGP/SGP4

EPOCH          = 2025-12-28T01:59:18.523392
MEAN_MOTION    = 15.16027359
ECCENTRICITY   = .00345419
INCLINATION    = 97.5716
RA_OF_ASC_NODE = 42.1792
ARG_OF_PERICENTER = 153.4159
MEAN_ANOMALY   = 206.8854

EPHEMERIS_TYPE = 0
CLASSIFICATION_TYPE = U
NORAD_CAT_ID   = 29507
ELEMENT_SET_NO = 999
REV_AT_EPOCH   = 4919
BSTAR          = .32440966E-3
MEAN_MOTION_DOT = .6261E-4
MEAN_MOTION_DDOT = 0

CCSDS_OMM_VERS = 2.0
CREATION_DATE  = 
ORIGINATOR     = 

OBJECT_NAME    = CZ-2C R/B
OBJECT_ID      = 2007-010B
CENTER_NAME    = EARTH
REF_FRAME      = TEME
TIME_SYSTEM    = UTC
MEAN_ELEMENT_THEORY = SGP/SGP4

EPOCH          = 2025-12-28T06:55:44.203584
MEAN_MOTION    = 14.20216428
ECCENTRICITY   = .00597484
INCLINATION    = 98.3974
RA_OF_ASC_NODE = 114.1571
ARG_OF_PERICENTER = 141.0616
MEAN_ANOMALY   = 219.4888

EPHEMERIS_TYPE = 0
CLASSIFICATION_TYPE = U
NORAD_CAT_ID   = 31114
ELEMENT_SET_NO = 999
REV_AT_EPOCH   = 96958
BSTAR          = .11544347E-3
MEAN_MOTION_DOT = .21E-5
MEAN_MOTION_DDOT = 0

CCSDS_OMM_VERS = 2.0
CREATION_DATE  = 
ORIGINATOR     = 

OBJECT_NAME    = COSMO-SKYMED 1
OBJECT_ID      = 2007-023A
CENTER_NAME    = EARTH
REF_FRAME      = TEME
TIME_SYSTEM    = UTC
MEAN_ELEMENT_THEORY = SGP/SGP4

EPOCH          = 2025-12-28T05:46:38.978688
MEAN_MOTION    = 14.95882351
ECCENTRICITY   = .00010487
INCLINATION    = 97.8836
RA_OF_ASC_NODE = 187.7425
ARG_OF_PERICENTER = 78.8645
MEAN_ANOMALY   = 281.2693

EPHEMERIS_TYPE = 0
CLASSIFICATION_TYPE = U
NORAD_CAT_ID   = 31598
ELEMENT_SET_NO = 999
REV_AT_EPOCH   = 422
BSTAR          = .42604993E-3
MEAN_MOTION_DOT = .4706E-4
MEAN_MOTION_DDOT = 0

CCSDS_OMM_VERS = 2.0
CREATION_DATE  = 
ORIGINATOR     = 

OBJECT_NAME    = COSMOS 2428
OBJECT_ID      = 2007-029A
CENTER_NAME    = EARTH
REF_FRAME      = TEME
TIME_SYSTEM    = UTC
MEAN_ELEMENT_THEORY = SGP/SGP4

EPOCH          = 2025-12-28T05:50:00.747744
MEAN_MOTION    = 14.12896878
ECCENTRICITY   = .00045626
INCLINATION    = 70.9371
RA_OF_ASC_NODE = 353.3284
ARG_OF_PERICENTER = 2.0607
MEAN_ANOMALY   = 358.0532

EPHEMERIS_TYPE = 0
CLASSIFICATION_TYPE = U
NORAD_CAT_ID   = 31792
ELEMENT_SET_NO = 999
REV_AT_EPOCH   = 95400
BSTAR          = .1795113E-3
MEAN_MOTION_DOT = .286E-5
MEAN_MOTION_DDOT = 0

CCSDS_OMM_VERS = 2.0
CREATION_DATE  = 
ORIGINATOR     = 

OBJECT_NAME    = SL-16 R/B
OBJECT_ID      = 2007-029B
CENTER_NAME    = EARTH
REF_FRAME      = TEME
TIME_SYSTEM    = UTC
MEAN_ELEMENT_THEORY = SGP/SGP4

EPOCH          = 2025-12-28T07:38:21.405120
MEAN_MOTION    = 14.14821052
ECCENTRICITY   = .00019114
INCLINATION    = 70.9768
RA_OF_ASC_NODE = 322.4096
ARG_OF_PERICENTER = 267.7121
MEAN_ANOMALY   = 261.3017

EPHEMERIS_TYPE = 0
CLASSIFICATION_TYPE = U
NORAD_CAT_ID   = 31793
ELEMENT_SET_NO = 999
REV_AT_EPOCH   = 95527
BSTAR          = .17740155E-3
MEAN_MOTION_DOT = .295E-5
MEAN_MOTION_DDOT = 0

CCSDS_OMM_VERS = 2.0
CREATION_DATE  = 
ORIGINATOR     = 

OBJECT_NAME    = KORONAS-FOTON
OBJECT_ID      = 2009-003A
CENTER_NAME    = EARTH
REF_FRAME      = TEME
TIME_SYSTEM    = UTC
MEAN_ELEMENT_THEORY = SGP/SGP4

EPOCH          = 2025-12-28T00:15:29.225952
MEAN_MOTION    = 15.41486416
ECCENTRICITY   = .00131434
INCLINATION    = 82.4309
RA_OF_ASC_NODE = 350.2776
ARG_OF_PERICENTER = 61.1160
MEAN_ANOMALY   = 299.1403

EPHEMERIS_TYPE = 0
CLASSIFICATION_TYPE = U
NORAD_CAT_ID   = 33504
ELEMENT_SET_NO = 999
REV_AT_EPOCH   = 93469
BSTAR          = .24420601E-3
MEAN_MOTION_DOT = .10299E-3
MEAN_MOTION_DDOT = 0

CCSDS_OMM_VERS = 2.0
CREATION_DATE  = 
ORIGINATOR     = 

OBJECT_NAME    = CZ-2C R/B
OBJECT_ID      = 2011-030B
CENTER_NAME    = EARTH
REF_FRAME      = TEME
TIME_SYSTEM    = UTC
MEAN_ELEMENT_THEORY = SGP/SGP4

EPOCH          = 2025-12-27T19:06:20.143872
MEAN_MOTION    = 14.80948198
ECCENTRICITY   = .00516798
INCLINATION    = 97.8435
RA_OF_ASC_NODE = 315.5714
ARG_OF_PERICENTER = 223.2870
MEAN_ANOMALY   = 197.0184

EPHEMERIS_TYPE = 0
CLASSIFICATION_TYPE = U
NORAD_CAT_ID   = 37731
ELEMENT_SET_NO = 999
REV_AT_EPOCH   = 77945
BSTAR          = .21178212E-3
MEAN_MOTION_DOT = .1621E-4
MEAN_MOTION_DDOT = 0

CCSDS_OMM_VERS = 2.0
CREATION_DATE  = 
ORIGINATOR     = 

OBJECT_NAME    = H-2A R/B
OBJECT_ID      = 2012-025E
CENTER_NAME    = EARTH
REF_FRAME      = TEME
TIME_SYSTEM    = UTC
MEAN_ELEMENT_THEORY = SGP/SGP4

EPOCH          = 2025-12-27T21:43:16.791744
MEAN_MOTION    = 14.94545079
ECCENTRICITY   = .004474
INCLINATION    = 98.4620
RA_OF_ASC_NODE = 318.3072
ARG_OF_PERICENTER = 185.4303
MEAN_ANOMALY   = 174.6436

EPHEMERIS_TYPE = 0
CLASSIFICATION_TYPE = U
NORAD_CAT_ID   = 38341
ELEMENT_SET_NO = 999
REV_AT_EPOCH   = 73749
BSTAR          = .42265E-3
MEAN_MOTION_DOT = .4591E-4
MEAN_MOTION_DDOT = 0

CCSDS_OMM_VERS = 2.0
CREATION_DATE  = 
ORIGINATOR     = 

OBJECT_NAME    = SHIJIAN-16 (SJ-16)
OBJECT_ID      = 2013-057A
CENTER_NAME    = EARTH
REF_FRAME      = TEME
TIME_SYSTEM    = UTC
MEAN_ELEMENT_THEORY = SGP/SGP4

EPOCH          = 2025-12-28T07:01:51.547872
MEAN_MOTION    = 14.92035184
ECCENTRICITY   = .00178987
INCLINATION    = 74.9736
RA_OF_ASC_NODE = 320.2246
ARG_OF_PERICENTER = 283.7646
MEAN_ANOMALY   = 76.1550

EPHEMERIS_TYPE = 0
CLASSIFICATION_TYPE = U
NORAD_CAT_ID   = 39358
ELEMENT_SET_NO = 999
REV_AT_EPOCH   = 66085
BSTAR          = .15314051E-3
MEAN_MOTION_DOT = .1529E-4
MEAN_MOTION_DDOT = 0

